[{"OBJECT_NAME":"ONEWEB-0597","OBJECT_ID":"2022-166X","EPOCH":"2026-03-12T02:14:28.372416","MEAN_MOTION":13.21826742,"ECCENTRICITY":0.00014706,"INCLINATION":87.9164,"RA_OF_ASC_NODE":263.3495,"ARG_OF_PERICENTER":91.6748,"MEAN_ANOMALY":268.4554,"EPHEMERIS_TYPE":0,"CLASSIFICATION_TYPE":"U","NORAD_CAT_ID":54663,"ELEMENT_SET_NO":999,"REV_AT_EPOCH":15871,"BSTAR":0.00023585187,"MEAN_MOTION_DOT":1.1e-6,"MEAN_MOTION_DDOT":0},{"OBJECT_NAME":"ONEWEB-0600","OBJECT_ID":"2022-166Y","EPOCH":"2026-03-12T05:26:24.453024","MEAN_MOTION":13.21824707,"ECCENTRICITY":0.00015598,"INCLINATION":87.9162,"RA_OF_ASC_NODE":263.3139,"ARG_OF_PERICENTER":101.7643,"MEAN_ANOMALY":258.3666,"EPHEMERIS_TYPE":0,"CLASSIFICATION_TYPE":"U","NORAD_CAT_ID":54664,"ELEMENT_SET_NO":999,"REV_AT_EPOCH":15870,"BSTAR":0.00031080291,"MEAN_MOTION_DOT":1.41e-6,"MEAN_MOTION_DDOT":0},{"OBJECT_NAME":"ONEWEB-0601","OBJECT_ID":"2022-166Z","EPOCH":"2026-03-12T01:36:33.736896","MEAN_MOTION":13.21826608,"ECCENTRICITY":0.00013257,"INCLINATION":87.9161,"RA_OF_ASC_NODE":263.3629,"ARG_OF_PERICENTER":90.9946,"MEAN_ANOMALY":269.134,"EPHEMERIS_TYPE":0,"CLASSIFICATION_TYPE":"U","NORAD_CAT_ID":54665,"ELEMENT_SET_NO":999,"REV_AT_EPOCH":15887,"BSTAR":3.9767504e-5,"MEAN_MOTION_DOT":2.9e-7,"MEAN_MOTION_DDOT":0},{"OBJECT_NAME":"ONEWEB-0602","OBJECT_ID":"2022-166AA","EPOCH":"2026-03-12T00:45:36.643968","MEAN_MOTION":13.21824301,"ECCENTRICITY":0.0001554,"INCLINATION":87.9166,"RA_OF_ASC_NODE":263.3757,"ARG_OF_PERICENTER":102.112,"MEAN_ANOMALY":258.0188,"EPHEMERIS_TYPE":0,"CLASSIFICATION_TYPE":"U","NORAD_CAT_ID":54666,"ELEMENT_SET_NO":999,"REV_AT_EPOCH":15871,"BSTAR":3.4008184e-5,"MEAN_MOTION_DOT":2.7e-7,"MEAN_MOTION_DDOT":0},{"OBJECT_NAME":"ONEWEB-0603","OBJECT_ID":"2022-166AB","EPOCH":"2026-03-12T06:20:54.362976","MEAN_MOTION":13.21824369,"ECCENTRICITY":0.00014741,"INCLINATION":87.9176,"RA_OF_ASC_NODE":263.2754,"ARG_OF_PERICENTER":93.3129,"MEAN_ANOMALY":266.8174,"EPHEMERIS_TYPE":0,"CLASSIFICATION_TYPE":"U","NORAD_CAT_ID":54667,"ELEMENT_SET_NO":999,"REV_AT_EPOCH":15867,"BSTAR":0.00018397466,"MEAN_MOTION_DOT":8.9e-7,"MEAN_MOTION_DDOT":0},{"OBJECT_NAME":"ONEWEB-0604","OBJECT_ID":"2022-166AC","EPOCH":"2026-03-12T06:04:19.246656","MEAN_MOTION":13.21824114,"ECCENTRICITY":0.00017253,"INCLINATION":87.9178,"RA_OF_ASC_NODE":263.2926,"ARG_OF_PERICENTER":93.8118,"MEAN_ANOMALY":266.3213,"EPHEMERIS_TYPE":0,"CLASSIFICATION_TYPE":"U","NORAD_CAT_ID":54668,"ELEMENT_SET_NO":999,"REV_AT_EPOCH":15863,"BSTAR":0.00016753345,"MEAN_MOTION_DOT":8.2e-7,"MEAN_MOTION_DDOT":0},{"OBJECT_NAME":"ONEWEB-0605","OBJECT_ID":"2022-166AD","EPOCH":"2026-03-12T00:27:50.016096","MEAN_MOTION":13.21824277,"ECCENTRICITY":0.00012586,"INCLINATION":87.9167,"RA_OF_ASC_NODE":263.3625,"ARG_OF_PERICENTER":72.9213,"MEAN_ANOMALY":287.2059,"EPHEMERIS_TYPE":0,"CLASSIFICATION_TYPE":"U","NORAD_CAT_ID":54669,"ELEMENT_SET_NO":999,"REV_AT_EPOCH":15867,"BSTAR":0.00010133124,"MEAN_MOTION_DOT":5.5e-7,"MEAN_MOTION_DDOT":0},{"OBJECT_NAME":"ONEWEB-0606","OBJECT_ID":"2022-166AE","EPOCH":"2026-03-12T06:25:39.031968","MEAN_MOTION":13.21827404,"ECCENTRICITY":0.00017676,"INCLINATION":87.9165,"RA_OF_ASC_NODE":263.3256,"ARG_OF_PERICENTER":90.4218,"MEAN_ANOMALY":269.7118,"EPHEMERIS_TYPE":0,"CLASSIFICATION_TYPE":"U","NORAD_CAT_ID":54670,"ELEMENT_SET_NO":999,"REV_AT_EPOCH":15876,"BSTAR":0.00013197562,"MEAN_MOTION_DOT":6.8e-7,"MEAN_MOTION_DDOT":0},{"OBJECT_NAME":"ONEWEB-0607","OBJECT_ID":"2022-166AF","EPOCH":"2026-03-12T05:38:16.332864","MEAN_MOTION":13.21827308,"ECCENTRICITY":0.00014559,"INCLINATION":87.917,"RA_OF_ASC_NODE":263.2968,"ARG_OF_PERICENTER":94.8308,"MEAN_ANOMALY":265.2992,"EPHEMERIS_TYPE":0,"CLASSIFICATION_TYPE":"U","NORAD_CAT_ID":54671,"ELEMENT_SET_NO":999,"REV_AT_EPOCH":15873,"BSTAR":0.00017111812,"MEAN_MOTION_DOT":8.4e-7,"MEAN_MOTION_DDOT":0},{"OBJECT_NAME":"ONEWEB-0608","OBJECT_ID":"2022-166AG","EPOCH":"2026-03-12T05:47:43.647360","MEAN_MOTION":13.21824495,"ECCENTRICITY":0.00011362,"INCLINATION":87.9174,"RA_OF_ASC_NODE":263.2891,"ARG_OF_PERICENTER":83.5975,"MEAN_ANOMALY":276.5288,"EPHEMERIS_TYPE":0,"CLASSIFICATION_TYPE":"U","NORAD_CAT_ID":54672,"ELEMENT_SET_NO":999,"REV_AT_EPOCH":15874,"BSTAR":0.00021178675,"MEAN_MOTION_DOT":1.0e-6,"MEAN_MOTION_DDOT":0},{"OBJECT_NAME":"ONEWEB-0610","OBJECT_ID":"2022-166AH","EPOCH":"2026-03-12T05:19:17.215392","MEAN_MOTION":13.21824544,"ECCENTRICITY":9.611e-5,"INCLINATION":87.9165,"RA_OF_ASC_NODE":263.3174,"ARG_OF_PERICENTER":91.801,"MEAN_ANOMALY":268.3234,"EPHEMERIS_TYPE":0,"CLASSIFICATION_TYPE":"U","NORAD_CAT_ID":54673,"ELEMENT_SET_NO":999,"REV_AT_EPOCH":15864,"BSTAR":9.2863537e-5,"MEAN_MOTION_DOT":5.1e-7,"MEAN_MOTION_DDOT":0},{"OBJECT_NAME":"ONEWEB-0611","OBJECT_ID":"2022-166AJ","EPOCH":"2026-03-12T01:31:49.069632","MEAN_MOTION":13.21824587,"ECCENTRICITY":0.00017899,"INCLINATION":87.9164,"RA_OF_ASC_NODE":263.3457,"ARG_OF_PERICENTER":94.2287,"MEAN_ANOMALY":265.9051,"EPHEMERIS_TYPE":0,"CLASSIFICATION_TYPE":"U","NORAD_CAT_ID":54674,"ELEMENT_SET_NO":999,"REV_AT_EPOCH":15861,"BSTAR":-0.00037793379,"MEAN_MOTION_DOT":-1.43e-6,"MEAN_MOTION_DDOT":0},{"OBJECT_NAME":"ONEWEB-0612","OBJECT_ID":"2022-166AK","EPOCH":"2026-03-12T05:28:47.345664","MEAN_MOTION":13.21827243,"ECCENTRICITY":0.00014595,"INCLINATION":87.9174,"RA_OF_ASC_NODE":263.297,"ARG_OF_PERICENTER":92.8536,"MEAN_ANOMALY":267.2765,"EPHEMERIS_TYPE":0,"CLASSIFICATION_TYPE":"U","NORAD_CAT_ID":54675,"ELEMENT_SET_NO":999,"REV_AT_EPOCH":15862,"BSTAR":0.00024557741,"MEAN_MOTION_DOT":1.14e-6,"MEAN_MOTION_DDOT":0},{"OBJECT_NAME":"ONEWEB-0615","OBJECT_ID":"2022-166AL","EPOCH":"2026-03-12T06:49:21.185472","MEAN_MOTION":13.21826718,"ECCENTRICITY":0.00015925,"INCLINATION":87.9168,"RA_OF_ASC_NODE":263.3094,"ARG_OF_PERICENTER":92.3573,"MEAN_ANOMALY":267.7743,"EPHEMERIS_TYPE":0,"CLASSIFICATION_TYPE":"U","NORAD_CAT_ID":54676,"ELEMENT_SET_NO":999,"REV_AT_EPOCH":15864,"BSTAR":2.8663809e-5,"MEAN_MOTION_DOT":2.5e-7,"MEAN_MOTION_DDOT":0},{"OBJECT_NAME":"ONEWEB-0655","OBJECT_ID":"2022-166AM","EPOCH":"2026-03-12T06:13:47.356896","MEAN_MOTION":13.21824271,"ECCENTRICITY":0.00014655,"INCLINATION":87.9165,"RA_OF_ASC_NODE":263.3165,"ARG_OF_PERICENTER":101.3124,"MEAN_ANOMALY":258.8175,"EPHEMERIS_TYPE":0,"CLASSIFICATION_TYPE":"U","NORAD_CAT_ID":54677,"ELEMENT_SET_NO":999,"REV_AT_EPOCH":15863,"BSTAR":8.5338258e-5,"MEAN_MOTION_DOT":4.8e-7,"MEAN_MOTION_DDOT":0},{"OBJECT_NAME":"ONEWEB-0659","OBJECT_ID":"2022-166AN","EPOCH":"2026-03-12T06:37:31.378368","MEAN_MOTION":13.21811471,"ECCENTRICITY":0.00016777,"INCLINATION":87.9161,"RA_OF_ASC_NODE":263.314,"ARG_OF_PERICENTER":81.8611,"MEAN_ANOMALY":278.2713,"EPHEMERIS_TYPE":0,"CLASSIFICATION_TYPE":"U","NORAD_CAT_ID":54678,"ELEMENT_SET_NO":999,"REV_AT_EPOCH":15872,"BSTAR":0.0083698127,"MEAN_MOTION_DOT":3.47e-5,"MEAN_MOTION_DDOT":0}]
