ONEWEB-0597             
1 54663U 22166X   26071.09338394  .00000110  00000+0  23585-3 0  9993
2 54663  87.9164 263.3495 0001470  91.6748 268.4554 13.21826742158712
ONEWEB-0600             
1 54664U 22166Y   26071.22667191  .00000141  00000+0  31080-3 0  9992
2 54664  87.9162 263.3139 0001559 101.7643 258.3666 13.21824707158701
ONEWEB-0601             
1 54665U 22166Z   26071.06705714  .00000029  00000+0  39768-4 0  9996
2 54665  87.9161 263.3629 0001325  90.9946 269.1340 13.21826608158870
ONEWEB-0602             
1 54666U 22166AA  26071.03167412  .00000027  00000+0  34008-4 0  9991
2 54666  87.9166 263.3757 0001554 102.1120 258.0188 13.21824301158710
ONEWEB-0603             
1 54667U 22166AB  26071.26451809  .00000089  00000+0  18397-3 0  9993
2 54667  87.9176 263.2754 0001474  93.3129 266.8174 13.21824369158670
ONEWEB-0604             
1 54668U 22166AC  26071.25300054  .00000082  00000+0  16753-3 0  9995
2 54668  87.9178 263.2926 0001725  93.8118 266.3213 13.21824114158639
ONEWEB-0605             
1 54669U 22166AD  26071.01932889  .00000055  00000+0  10133-3 0  9993
2 54669  87.9167 263.3625 0001258  72.9213 287.2059 13.21824277158674
ONEWEB-0606             
1 54670U 22166AE  26071.26781287  .00000068  00000+0  13198-3 0  9994
2 54670  87.9165 263.3256 0001767  90.4218 269.7118 13.21827404158765
ONEWEB-0607             
1 54671U 22166AF  26071.23491126  .00000084  00000+0  17112-3 0  9990
2 54671  87.9170 263.2968 0001455  94.8308 265.2992 13.21827308158734
ONEWEB-0608             
1 54672U 22166AG  26071.24147740  .00000100  00000+0  21179-3 0  9999
2 54672  87.9174 263.2891 0001136  83.5975 276.5288 13.21824495158743
ONEWEB-0610             
1 54673U 22166AH  26071.22172703  .00000051  00000+0  92864-4 0  9990
2 54673  87.9165 263.3174 0000961  91.8010 268.3234 13.21824544158640
ONEWEB-0611             
1 54674U 22166AJ  26071.06376238 -.00000143  00000+0 -37793-3 0  9995
2 54674  87.9164 263.3457 0001789  94.2287 265.9051 13.21824587158610
ONEWEB-0612             
1 54675U 22166AK  26071.22832576  .00000114  00000+0  24558-3 0  9997
2 54675  87.9174 263.2970 0001459  92.8536 267.2765 13.21827243158626
ONEWEB-0615             
1 54676U 22166AL  26071.28427298  .00000025  00000+0  28664-4 0  9999
2 54676  87.9168 263.3094 0001592  92.3573 267.7743 13.21826718158641
ONEWEB-0655             
1 54677U 22166AM  26071.25957589  .00000048  00000+0  85338-4 0  9994
2 54677  87.9165 263.3165 0001465 101.3124 258.8175 13.21824271158631
ONEWEB-0659             
1 54678U 22166AN  26071.27605762  .00003470  00000+0  83698-2 0  9997
2 54678  87.9161 263.3140 0001677  81.8611 278.2713 13.21811471158721
